FENGYUN 1C DEB          
1 31630U 99025CAL 17345.36559770  .00000795  00000-0  95677-4 0  9999
2 31630  97.8983 190.8136 0321192 290.8130  65.8944 14.56526960560425
